{
  "type": "FeatureCollection",
  "features": [
    {
      "type": "Feature",
      "properties": {
        "norad_id": 66774,
        "name": "TRANSPORTER-15DN",
        "group": "last-30-days",
        "lat": -34.74212560913033,
        "lon": -113.99703298598682,
        "alt_km": 517.3963750917565,
        "timestamp": "2025-12-25T14:48:23.570027+00:00",
        "meta_object_name": "TRANSPORTER-15DN",
        "meta_object_id": "2025-276DN",
        "meta_epoch": "2025-12-25T05:57:21.996000",
        "meta_mean_motion": 15.18618343,
        "meta_eccentricity": 0.0003066,
        "meta_inclination": 97.441,
        "meta_ra_of_asc_node": 70.8405,
        "meta_arg_of_pericenter": 95.2388,
        "meta_mean_anomaly": 264.9196,
        "meta_ephemeris_type": 0,
        "meta_classification_type": "U",
        "meta_norad_cat_id": 66774,
        "meta_element_set_no": 999,
        "meta_rev_at_epoch": 402,
        "meta_bstar": 0.00049640263,
        "meta_mean_motion_dot": 0.00010214,
        "meta_mean_motion_ddot": 0,
        "tle_line1": "1 66774U 25276DN  25359.24817125  .00010214  00000+0  49640-3 0  9999",
        "tle_line2": "2 66774  97.4410  70.8405 0003066  95.2388 264.9196 15.18618343  4024"
      },
      "geometry": {
        "type": "Point",
        "coordinates": [
          -113.99703298598682,
          -34.74212560913033
        ]
      }
    },
    {
      "type": "Feature",
      "properties": {
        "norad_id": 66775,
        "name": "PHI 1",
        "group": "last-30-days",
        "lat": -39.49768963619285,
        "lon": -114.99644079252143,
        "alt_km": 518.1086799214645,
        "timestamp": "2025-12-25T14:48:23.570036+00:00",
        "meta_object_name": "PHI 1",
        "meta_object_id": "2025-276DP",
        "meta_epoch": "2025-12-25T05:56:06.669888",
        "meta_mean_motion": 15.1868322,
        "meta_eccentricity": 0.00027679,
        "meta_inclination": 97.4334,
        "meta_ra_of_asc_node": 70.8181,
        "meta_arg_of_pericenter": 64.0735,
        "meta_mean_anomaly": 296.0784,
        "meta_ephemeris_type": 0,
        "meta_classification_type": "U",
        "meta_norad_cat_id": 66775,
        "meta_element_set_no": 999,
        "meta_rev_at_epoch": 402,
        "meta_bstar": 0.00048724828,
        "meta_mean_motion_dot": 0.00010043,
        "meta_mean_motion_ddot": 0,
        "tle_line1": "1 66775U 25276DP  25359.24729942  .00010043  00000+0  48725-3 0  9992",
        "tle_line2": "2 66775  97.4334  70.8181 0002767  64.0735 296.0784 15.18683220  4023"
      },
      "geometry": {
        "type": "Point",
        "coordinates": [
          -114.99644079252143,
          -39.49768963619285
        ]
      }
    },
    {
      "type": "Feature",
      "properties": {
        "norad_id": 66776,
        "name": "TRANSPORTER-15DQ",
        "group": "last-30-days",
        "lat": -41.89956281093349,
        "lon": -115.5360971643731,
        "alt_km": 517.8970180578481,
        "timestamp": "2025-12-25T14:48:23.570045+00:00",
        "meta_object_name": "TRANSPORTER-15DQ",
        "meta_object_id": "2025-276DQ",
        "meta_epoch": "2025-12-25T05:55:29.301888",
        "meta_mean_motion": 15.18732458,
        "meta_eccentricity": 0.00029039,
        "meta_inclination": 97.4373,
        "meta_ra_of_asc_node": 70.8307,
        "meta_arg_of_pericenter": 80.8901,
        "meta_mean_anomaly": 279.2662,
        "meta_ephemeris_type": 0,
        "meta_classification_type": "U",
        "meta_norad_cat_id": 66776,
        "meta_element_set_no": 999,
        "meta_rev_at_epoch": 402,
        "meta_bstar": 0.00054574775,
        "meta_mean_motion_dot": 0.00011274,
        "meta_mean_motion_ddot": 0,
        "tle_line1": "1 66776U 25276DQ  25359.24686692  .00011274  00000+0  54575-3 0  9994",
        "tle_line2": "2 66776  97.4373  70.8307 0002903  80.8901 279.2662 15.18732458  4026"
      },
      "geometry": {
        "type": "Point",
        "coordinates": [
          -115.5360971643731,
          -41.89956281093349
        ]
      }
    },
    {
      "type": "Feature",
      "properties": {
        "norad_id": 66777,
        "name": "TRANSPORTER-15DR",
        "group": "last-30-days",
        "lat": -56.48352672512143,
        "lon": -120.15923990048128,
        "alt_km": 517.6219876130444,
        "timestamp": "2025-12-25T14:48:23.570054+00:00",
        "meta_object_name": "TRANSPORTER-15DR",
        "meta_object_id": "2025-276DR",
        "meta_epoch": "2025-12-25T05:51:38.812608",
        "meta_mean_motion": 15.18972369,
        "meta_eccentricity": 0.0003524,
        "meta_inclination": 97.4462,
        "meta_ra_of_asc_node": 70.8629,
        "meta_arg_of_pericenter": 107.3029,
        "meta_mean_anomaly": 252.8592,
        "meta_ephemeris_type": 0,
        "meta_classification_type": "U",
        "meta_norad_cat_id": 66777,
        "meta_element_set_no": 999,
        "meta_rev_at_epoch": 402,
        "meta_bstar": 0.0006119352,
        "meta_mean_motion_dot": 0.00012741,
        "meta_mean_motion_ddot": 0,
        "tle_line1": "1 66777U 25276DR  25359.24419922  .00012741  00000+0  61194-3 0  9990",
        "tle_line2": "2 66777  97.4462  70.8629 0003524 107.3029 252.8592 15.18972369  4025"
      },
      "geometry": {
        "type": "Point",
        "coordinates": [
          -120.15923990048128,
          -56.48352672512143
        ]
      }
    },
    {
      "type": "Feature",
      "properties": {
        "norad_id": 66778,
        "name": "TRANSPORTER-15DS",
        "group": "last-30-days",
        "lat": 59.26351139019212,
        "lon": 58.437891335480735,
        "alt_km": 508.7682144160517,
        "timestamp": "2025-12-25T14:48:23.570063+00:00",
        "meta_object_name": "TRANSPORTER-15DS",
        "meta_object_id": "2025-276DS",
        "meta_epoch": "2025-12-18T19:26:21.991200",
        "meta_mean_motion": 15.16535337,
        "meta_eccentricity": 0.00032319,
        "meta_inclination": 97.4427,
        "meta_ra_of_asc_node": 64.4586,
        "meta_arg_of_pericenter": 41.3734,
        "meta_mean_anomaly": 318.7744,
        "meta_ephemeris_type": 0,
        "meta_classification_type": "U",
        "meta_norad_cat_id": 66778,
        "meta_element_set_no": 999,
        "meta_rev_at_epoch": 304,
        "meta_bstar": 0.00025483693,
        "meta_mean_motion_dot": 4.904e-05,
        "meta_mean_motion_ddot": 0,
        "tle_line1": "1 66778U 25276DS  25352.80997675  .00004904  00000+0  25484-3 0  9996",
        "tle_line2": "2 66778  97.4427  64.4586 0003231  41.3734 318.7744 15.16535337  3043"
      },
      "geometry": {
        "type": "Point",
        "coordinates": [
          58.437891335480735,
          59.26351139019212
        ]
      }
    },
    {
      "type": "Feature",
      "properties": {
        "norad_id": 66791,
        "name": "STARLINK-35867",
        "group": "last-30-days",
        "lat": 14.137085850592051,
        "lon": -169.33632985460696,
        "alt_km": 436.1397924674102,
        "timestamp": "2025-12-25T14:48:23.570073+00:00",
        "meta_object_name": "STARLINK-35867",
        "meta_object_id": "2025-278A",
        "meta_epoch": "2025-12-25T08:00:01.000224",
        "meta_mean_motion": 15.43896848,
        "meta_eccentricity": 9.723e-05,
        "meta_inclination": 43.0008,
        "meta_ra_of_asc_node": 176.6236,
        "meta_arg_of_pericenter": 274.0487,
        "meta_mean_anomaly": 329.5137,
        "meta_ephemeris_type": 0,
        "meta_classification_type": "U",
        "meta_norad_cat_id": 66791,
        "meta_element_set_no": 999,
        "meta_rev_at_epoch": 498,
        "meta_bstar": -0.045950861,
        "meta_mean_motion_dot": -0.01914526,
        "meta_mean_motion_ddot": 0,
        "tle_line1": "1 66791U 25278A   25359.33334491 -.01914526  00000+0 -45951-1 0  9991",
        "tle_line2": "2 66791  43.0008 176.6236 0000972 274.0487 329.5137 15.43896848  4984"
      },
      "geometry": {
        "type": "Point",
        "coordinates": [
          -169.33632985460696,
          14.137085850592051
        ]
      }
    },
    {
      "type": "Feature",
      "properties": {
        "norad_id": 66792,
        "name": "STARLINK-35990",
        "group": "last-30-days",
        "lat": 30.416152736774734,
        "lon": -146.0342613736221,
        "alt_km": 411.2166571053185,
        "timestamp": "2025-12-25T14:48:23.570084+00:00",
        "meta_object_name": "STARLINK-35990",
        "meta_object_id": "2025-278B",
        "meta_epoch": "2025-12-25T08:00:01.000224",
        "meta_mean_motion": 15.50511869,
        "meta_eccentricity": 0.00018479,
        "meta_inclination": 43.0003,
        "meta_ra_of_asc_node": 176.5743,
        "meta_arg_of_pericenter": 267.0819,
        "meta_mean_anomaly": 356.0163,
        "meta_ephemeris_type": 0,
        "meta_classification_type": "U",
        "meta_norad_cat_id": 66792,
        "meta_element_set_no": 999,
        "meta_rev_at_epoch": 498,
        "meta_bstar": 0.0012090939,
        "meta_mean_motion_dot": 0.00071067,
        "meta_mean_motion_ddot": 0,
        "tle_line1": "1 66792U 25278B   25359.33334491  .00071067  00000+0  12091-2 0  9993",
        "tle_line2": "2 66792  43.0003 176.5743 0001847 267.0819 356.0163 15.50511869  4984"
      },
      "geometry": {
        "type": "Point",
        "coordinates": [
          -146.0342613736221,
          30.416152736774734
        ]
      }
    }
  ]
}